{
  "features": [
    {
      "geometry": {
        "coordinates": [
          [
            [
              13.0728333,
              39
            ],
            [
              15,
              39
            ],
            [
              15,
              42
            ],
            [
              12,
              42
            ],
            [
              12,
              41.55725
            ],
            [
              13.0728333,
              39
            ]
          ]
        ],
        "type": "Polygon"
      },
      "id": 1,
      "properties": {
        "end_datetime": "2021-12-31T23:59:59Z",
        "grid_code": "ESAWORLDCOVER-N39E012",
        "id": 1,
        "product_version": "2.0.0",
        "source_item_id": "ESA_WorldCover_10m_2021_v200_N39E012",
        "start_datetime": "2021-01-01T00:00:00Z"
      },
      "type": "Feature"
    }
  ],
  "type": "FeatureCollection"
}
